[{"OBJECT_NAME":"SAUDISAT 5B","OBJECT_ID":"2018-102C","EPOCH":"2026-03-09T22:59:17.457216","MEAN_MOTION":15.27248504,"ECCENTRICITY":0.00120577,"INCLINATION":97.3281,"RA_OF_ASC_NODE":135.3629,"ARG_OF_PERICENTER":124.0958,"MEAN_ANOMALY":236.1427,"EPHEMERIS_TYPE":0,"CLASSIFICATION_TYPE":"U","NORAD_CAT_ID":43833,"ELEMENT_SET_NO":999,"REV_AT_EPOCH":40064,"BSTAR":0.00024926623,"MEAN_MOTION_DOT":6.596e-5,"MEAN_MOTION_DDOT":0},{"OBJECT_NAME":"STARLINK-32894","OBJECT_ID":"2025-029X","EPOCH":"2026-03-09T21:47:05.339616","MEAN_MOTION":15.3021001,"ECCENTRICITY":0.00010171,"INCLINATION":53.1604,"RA_OF_ASC_NODE":231.2509,"ARG_OF_PERICENTER":100.0958,"MEAN_ANOMALY":260.0157,"EPHEMERIS_TYPE":0,"CLASSIFICATION_TYPE":"U","NORAD_CAT_ID":62969,"ELEMENT_SET_NO":999,"REV_AT_EPOCH":6135,"BSTAR":0.0011166665,"MEAN_MOTION_DOT":0.0003287,"MEAN_MOTION_DDOT":0}]
